{
  "type": "FeatureCollection",
  "features": [
    {
      "type": "Feature",
      "properties": {
        "norad_id": 38091,
        "name": "BEIDOU-2 G5 (C05)",
        "group": "gnss",
        "lat": -2.987739891206437,
        "lon": -0.9868152980193627,
        "alt_km": 35756.08467725023,
        "timestamp": "2025-12-26T13:39:19.216716+00:00",
        "meta_object_name": "BEIDOU-2 G5 (C05)",
        "meta_object_id": "2012-008A",
        "meta_epoch": "2025-12-25T21:54:09.656928",
        "meta_mean_motion": 1.00270052,
        "meta_eccentricity": 0.001313,
        "meta_inclination": 3.1399,
        "meta_ra_of_asc_node": 70.6602,
        "meta_arg_of_pericenter": 232.1831,
        "meta_mean_anomaly": 179.0905,
        "meta_ephemeris_type": 0,
        "meta_classification_type": "U",
        "meta_norad_cat_id": 38091,
        "meta_element_set_no": 999,
        "meta_rev_at_epoch": 5063,
        "meta_bstar": 0,
        "meta_mean_motion_dot": 7.8e-07,
        "meta_mean_motion_ddot": 0,
        "tle_line1": "1 38091U 12008A   25359.91261177  .00000078  00000+0  00000+0 0  9993",
        "tle_line2": "2 38091   3.1399  70.6602 0013130 232.1831 179.0905  1.00270052 50639"
      },
      "geometry": {
        "type": "Point",
        "coordinates": [
          -0.9868152980193627,
          -2.987739891206437
        ]
      }
    },
    {
      "type": "Feature",
      "properties": {
        "norad_id": 38250,
        "name": "BEIDOU-2 M3 (C11)",
        "group": "gnss",
        "lat": -6.4315251776091245,
        "lon": 135.0507022736117,
        "alt_km": 21526.47926853625,
        "timestamp": "2025-12-26T13:39:19.216741+00:00",
        "meta_object_name": "BEIDOU-2 M3 (C11)",
        "meta_object_id": "2012-018A",
        "meta_epoch": "2025-12-24T03:22:03.617760",
        "meta_mean_motion": 1.86230154,
        "meta_eccentricity": 0.00241099,
        "meta_inclination": 55.9106,
        "meta_ra_of_asc_node": 310.7747,
        "meta_arg_of_pericenter": 275.3713,
        "meta_mean_anomaly": 84.3565,
        "meta_ephemeris_type": 0,
        "meta_classification_type": "U",
        "meta_norad_cat_id": 38250,
        "meta_element_set_no": 999,
        "meta_rev_at_epoch": 9268,
        "meta_bstar": 0,
        "meta_mean_motion_dot": -5.3e-07,
        "meta_mean_motion_ddot": 0,
        "tle_line1": "1 38250U 12018A   25358.14031965 -.00000053  00000+0  00000+0 0  9999",
        "tle_line2": "2 38250  55.9106 310.7747 0024109 275.3713  84.3565  1.86230154 92685"
      },
      "geometry": {
        "type": "Point",
        "coordinates": [
          135.0507022736117,
          -6.4315251776091245
        ]
      }
    },
    {
      "type": "Feature",
      "properties": {
        "norad_id": 38251,
        "name": "BEIDOU-2 M4 (C12)",
        "group": "gnss",
        "lat": -41.718161989591636,
        "lon": 167.16711248075063,
        "alt_km": 21503.805867118863,
        "timestamp": "2025-12-26T13:39:19.216756+00:00",
        "meta_object_name": "BEIDOU-2 M4 (C12)",
        "meta_object_id": "2012-018B",
        "meta_epoch": "2025-12-26T05:17:08.054304",
        "meta_mean_motion": 1.86229703,
        "meta_eccentricity": 0.00151682,
        "meta_inclination": 55.8098,
        "meta_ra_of_asc_node": 309.9329,
        "meta_arg_of_pericenter": 279.718,
        "meta_mean_anomaly": 80.1169,
        "meta_ephemeris_type": 0,
        "meta_classification_type": "U",
        "meta_norad_cat_id": 38251,
        "meta_element_set_no": 999,
        "meta_rev_at_epoch": 9272,
        "meta_bstar": 0,
        "meta_mean_motion_dot": -5.5e-07,
        "meta_mean_motion_ddot": 0,
        "tle_line1": "1 38251U 12018B   25360.22023211 -.00000055  00000+0  00000+0 0  9999",
        "tle_line2": "2 38251  55.8098 309.9329 0015168 279.7180  80.1169  1.86229703 92729"
      },
      "geometry": {
        "type": "Point",
        "coordinates": [
          167.16711248075063,
          -41.718161989591636
        ]
      }
    },
    {
      "type": "Feature",
      "properties": {
        "norad_id": 38652,
        "name": "SES-5 (EGNOS/PRN 136)",
        "group": "gnss",
        "lat": -0.015551925779632767,
        "lon": -54.83673974419467,
        "alt_km": 35777.85879849456,
        "timestamp": "2025-12-26T13:39:19.216768+00:00",
        "meta_object_name": "SES-5 (EGNOS/PRN 136)",
        "meta_object_id": "2012-036A",
        "meta_epoch": "2025-12-25T22:09:38.747232",
        "meta_mean_motion": 1.00281507,
        "meta_eccentricity": 0.00019078,
        "meta_inclination": 0.0573,
        "meta_ra_of_asc_node": 305.8502,
        "meta_arg_of_pericenter": 311.7398,
        "meta_mean_anomaly": 174.4865,
        "meta_ephemeris_type": 0,
        "meta_classification_type": "U",
        "meta_norad_cat_id": 38652,
        "meta_element_set_no": 999,
        "meta_rev_at_epoch": 4272,
        "meta_bstar": 0,
        "meta_mean_motion_dot": 5.7e-07,
        "meta_mean_motion_ddot": 0,
        "tle_line1": "1 38652U 12036A   25359.92336513  .00000057  00000+0  00000+0 0  9992",
        "tle_line2": "2 38652   0.0573 305.8502 0001907 311.7398 174.4865  1.00281507 42727"
      },
      "geometry": {
        "type": "Point",
        "coordinates": [
          -54.83673974419467,
          -0.015551925779632767
        ]
      }
    },
    {
      "type": "Feature",
      "properties": {
        "norad_id": 38775,
        "name": "BEIDOU-2 M6 (C14)",
        "group": "gnss",
        "lat": 50.46010474357493,
        "lon": 122.20595314654997,
        "alt_km": 21519.040416457916,
        "timestamp": "2025-12-26T13:39:19.216780+00:00",
        "meta_object_name": "BEIDOU-2 M6 (C14)",
        "meta_object_id": "2012-050B",
        "meta_epoch": "2025-12-24T07:41:05.368128",
        "meta_mean_motion": 1.86230801,
        "meta_eccentricity": 0.00114872,
        "meta_inclination": 56.388,
        "meta_ra_of_asc_node": 68.6832,
        "meta_arg_of_pericenter": 343.1884,
        "meta_mean_anomaly": 16.8281,
        "meta_ephemeris_type": 0,
        "meta_classification_type": "U",
        "meta_norad_cat_id": 38775,
        "meta_element_set_no": 999,
        "meta_rev_at_epoch": 9005,
        "meta_bstar": 0,
        "meta_mean_motion_dot": -2.4e-07,
        "meta_mean_motion_ddot": 0,
        "tle_line1": "1 38775U 12050B   25358.32020102 -.00000024  00000+0  00000+0 0  9996",
        "tle_line2": "2 38775  56.3880  68.6832 0011487 343.1884  16.8281  1.86230801 90056"
      },
      "geometry": {
        "type": "Point",
        "coordinates": [
          122.20595314654997,
          50.46010474357493
        ]
      }
    },
    {
      "type": "Feature",
      "properties": {
        "norad_id": 38779,
        "name": "GSAT-10 (GAGAN/PRN 128)",
        "group": "gnss",
        "lat": 0.051920450513836446,
        "lon": 23.139603007692443,
        "alt_km": 35787.5971594513,
        "timestamp": "2025-12-26T13:39:19.216793+00:00",
        "meta_object_name": "GSAT-10 (GAGAN/PRN 128)",
        "meta_object_id": "2012-051B",
        "meta_epoch": "2025-12-26T03:37:38.694720",
        "meta_mean_motion": 1.00270744,
        "meta_eccentricity": 0.0002086,
        "meta_inclination": 0.0597,
        "meta_ra_of_asc_node": 261.7591,
        "meta_arg_of_pericenter": 219.4452,
        "meta_mean_anomaly": 111.1371,
        "meta_ephemeris_type": 0,
        "meta_classification_type": "U",
        "meta_norad_cat_id": 38779,
        "meta_element_set_no": 999,
        "meta_rev_at_epoch": 4836,
        "meta_bstar": 0,
        "meta_mean_motion_dot": -1.43e-06,
        "meta_mean_motion_ddot": 0,
        "tle_line1": "1 38779U 12051B   25360.15114230 -.00000143  00000+0  00000+0 0  9993",
        "tle_line2": "2 38779   0.0597 261.7591 0002086 219.4452 111.1371  1.00270744 48362"
      },
      "geometry": {
        "type": "Point",
        "coordinates": [
          23.139603007692443,
          0.051920450513836446
        ]
      }
    },
    {
      "type": "Feature",
      "properties": {
        "norad_id": 38833,
        "name": "GPS BIIF-3  (PRN 24)",
        "group": "gnss",
        "lat": -6.948424156427968,
        "lon": -24.172782597733676,
        "alt_km": 20441.595020936,
        "timestamp": "2025-12-26T13:39:19.216805+00:00",
        "meta_object_name": "GPS BIIF-3  (PRN 24)",
        "meta_object_id": "2012-053A",
        "meta_epoch": "2025-12-24T07:38:21.199488",
        "meta_mean_motion": 2.00565058,
        "meta_eccentricity": 0.01760755,
        "meta_inclination": 53.5598,
        "meta_ra_of_asc_node": 150.7645,
        "meta_arg_of_pericenter": 64.1634,
        "meta_mean_anomaly": 297.6191,
        "meta_ephemeris_type": 0,
        "meta_classification_type": "U",
        "meta_norad_cat_id": 38833,
        "meta_element_set_no": 999,
        "meta_rev_at_epoch": 9593,
        "meta_bstar": 0,
        "meta_mean_motion_dot": 8.3e-07,
        "meta_mean_motion_ddot": 0,
        "tle_line1": "1 38833U 12053A   25358.31830092  .00000083  00000+0  00000+0 0  9994",
        "tle_line2": "2 38833  53.5598 150.7645 0176075  64.1634 297.6191  2.00565058 95932"
      },
      "geometry": {
        "type": "Point",
        "coordinates": [
          -24.172782597733676,
          -6.948424156427968
        ]
      }
    }
  ]
}